[{"OBJECT_NAME":"STARLINK-2415","OBJECT_ID":"2021-018AT","EPOCH":"2026-03-09T19:22:10.259616","MEAN_MOTION":15.3017606,"ECCENTRICITY":6.763e-5,"INCLINATION":53.1577,"RA_OF_ASC_NODE":254.7395,"ARG_OF_PERICENTER":66.6649,"MEAN_ANOMALY":293.4423,"EPHEMERIS_TYPE":0,"CLASSIFICATION_TYPE":"U","NORAD_CAT_ID":47828,"ELEMENT_SET_NO":999,"REV_AT_EPOCH":27657,"BSTAR":-0.00013328782,"MEAN_MOTION_DOT":-4.301e-5,"MEAN_MOTION_DDOT":0},{"OBJECT_NAME":"PEGASUS DEB","OBJECT_ID":"1994-029AG","EPOCH":"2026-03-09T11:16:42.963744","MEAN_MOTION":15.37636263,"ECCENTRICITY":0.0031206,"INCLINATION":82.0362,"RA_OF_ASC_NODE":86.2933,"ARG_OF_PERICENTER":155.6019,"MEAN_ANOMALY":204.671,"EPHEMERIS_TYPE":0,"CLASSIFICATION_TYPE":"U","NORAD_CAT_ID":23986,"ELEMENT_SET_NO":999,"REV_AT_EPOCH":61542,"BSTAR":0.00061808813,"MEAN_MOTION_DOT":0.00023279,"MEAN_MOTION_DDOT":0}]
